STARLINK-31231          
1 59034U 24038M   26068.26950667 -.00000305  00000+0 -15589-5 0  9993
2 59034  43.0047  25.9678 0001200 275.6267  84.4448 15.27574784114622
TRANSPORTER-13 OBJECT AH
1 63241U 25052AH  26068.64880921  .00014108  00000+0  55931-3 0  9999
2 63241  97.3962 323.1443 0008070 138.7508 221.4341 15.25468797 54753
